{
    "links": {
        "self": "http://www.neowsapp.com/rest/v1/neo/3564020?api_key=iIulBulltgU6a56xZRHN4H3l9WmuAYTsLGpBGhQ2"
    },
    "id": "3564020",
    "neo_reference_id": "3564020",
    "name": "(2011 HQ4)",
    "designation": "2011 HQ4",
    "nasa_jpl_url": "http://ssd.jpl.nasa.gov/sbdb.cgi?sstr=3564020",
    "absolute_magnitude_h": 25.5,
    "estimated_diameter": {
        "kilometers": {
            "estimated_diameter_min": 0.0211132445,
            "estimated_diameter_max": 0.0472106499
        },
        "meters": {
            "estimated_diameter_min": 21.113244479,
            "estimated_diameter_max": 47.2106498806
        },
        "miles": {
            "estimated_diameter_min": 0.0131191578,
            "estimated_diameter_max": 0.0293353287
        },
        "feet": {
            "estimated_diameter_min": 69.2691770164,
            "estimated_diameter_max": 154.8905885541
        }
    },
    "is_potentially_hazardous_asteroid": false,
    "close_approach_data": [
        {
            "close_approach_date": "2011-04-14",
            "close_approach_date_full": "2011-Apr-14 12:51",
            "epoch_date_close_approach": 1302785460000,
            "relative_velocity": {
                "kilometers_per_second": "7.2245607241",
                "kilometers_per_hour": "26008.4186069189",
                "miles_per_hour": "16160.619883838"
            },
            "miss_distance": {
                "astronomical": "0.0505150481",
                "lunar": "19.6503537109",
                "kilometers": "7556943.598707547",
                "miles": "4695667.0112642686"
            },
            "orbiting_body": "Earth"
        },
        {
            "close_approach_date": "2141-01-12",
            "close_approach_date_full": "2141-Jan-12 00:29",
            "epoch_date_close_approach": 5397236940000,
            "relative_velocity": {
                "kilometers_per_second": "4.5656327659",
                "kilometers_per_hour": "16436.2779573549",
                "miles_per_hour": "10212.8639341131"
            },
            "miss_distance": {
                "astronomical": "1.8492580625",
                "lunar": "719.3613863125",
                "kilometers": "276645067.230326875",
                "miles": "171899273.701685875"
            },
            "orbiting_body": "Juptr"
        }
    ],
    "orbital_data": {
        "orbit_id": "5",
        "orbit_determination_date": "2017-04-06 08:53:38",
        "first_observation_date": "2011-04-26",
        "last_observation_date": "2011-04-27",
        "data_arc_in_days": 1,
        "observations_used": 16,
        "orbit_uncertainty": "8",
        "minimum_orbit_intersection": ".0385666",
        "jupiter_tisserand_invariant": "3.347",
        "epoch_osculation": "2455678.5",
        "eccentricity": ".5552820827860656",
        "semi_major_axis": "2.328924127185978",
        "inclination": ".6724221660074559",
        "ascending_node_longitude": "300.981829760576",
        "orbital_period": "1298.169606724402",
        "perihelion_distance": "1.035714287191428",
        "perihelion_argument": "248.1111631426598",
        "aphelion_distance": "3.622133967180527",
        "perihelion_time": "2455654.198752130285",
        "mean_anomaly": "6.739064901674801",
        "mean_motion": ".277313532943024",
        "equinox": "J2000",
        "orbit_class": {
            "orbit_class_type": "AMO",
            "orbit_class_description": "Near-Earth asteroid orbits similar to that of 1221 Amor",
            "orbit_class_range": "1.017 AU < q (perihelion) < 1.3 AU"
        }
    },
    "is_sentry_object": false
}